NORAD_CAT_ID,OBJECT_NAME,OBJECT_TYPE,EPOCH,MEAN_MOTION,ECCENTRICITY,INCLINATION,RA_OF_ASC_NODE,ARG_OF_PERICENTER,MEAN_ANOMALY,BSTAR,MEAN_MOTION_DOT,MEAN_MOTION_DDOT,TLE_LINE0,TLE_LINE1,TLE_LINE2,SEMIMAJOR_AXIS,PERIOD,APOGEE,PERIGEE,DECAYED
52599.0,STARLINK-4024,PAYLOAD,2024-04-25 08:22:33,15.08848431,0.0001393,53.2166,106.8606,102.6735,257.4413,0.00022772,3.339e-05,0.0,0 STARLINK-4024,1 52599U 22052B   24116.34900304  .00003339  00000-0  22772-3 0  9999,2 52599  53.2166 106.8606 0001393 102.6735 257.4413 15.08848431108065,6917.855,95.437,540.683,538.756,0.0
52599.0,STARLINK-4024,PAYLOAD,2024-04-25 22:41:01,15.08849581,0.0001433,53.2171,104.1851,104.2276,255.8876,0.00027212,4.047e-05,0.0,0 STARLINK-4024,1 52599U 22052B   24116.94516148  .00004047  00000-0  27212-3 0  9995,2 52599  53.2171 104.1851 0001433 104.2276 255.8876 15.08849581108586,6917.851,95.437,540.707,538.725,0.0
52599.0,STARLINK-4024,PAYLOAD,2024-04-26 08:13:20,15.08847469,0.0001291,53.2158,102.3998,99.2102,260.9036,0.00015501,2.18e-05,0.0,0 STARLINK-4024,1 52599U 22052B   24117.34260060  .00002180  00000-0  15501-3 0  9993,2 52599  53.2158 102.3998 0001291  99.2102 260.9036 15.08847469108214,6917.858,95.437,540.616,538.829,0.0
52599.0,STARLINK-4024,PAYLOAD,2024-04-26 16:10:16,15.08851625,0.0001244,53.2156,100.9141,87.6037,272.5097,0.00018179,2.607e-05,0.0,0 STARLINK-4024,1 52599U 22052B   24117.67379782  .00002607  00000-0  18179-3 0  9999,2 52599  53.2156 100.9141 0001244  87.6037 272.5097 15.08851625108699,6917.845,95.437,540.57,538.849,0.0
52599.0,STARLINK-4024,PAYLOAD,2024-04-27 04:53:21,15.08841165,0.0001418,53.2163,98.5339,95.4348,264.6806,-3.6012e-05,-8.61e-06,0.0,0 STARLINK-4024,1 52599U 22052B   24118.20372325 -.00000861  00000-0 -36012-4 0  9994,2 52599  53.2163  98.5339 0001418  95.4348 264.6806 15.08841165108343,6917.877,95.437,540.723,538.761,0.0
52599.0,STARLINK-4024,PAYLOAD,2024-04-27 22:22:36,15.08844619,0.0001391,53.2163,95.2632,92.9697,267.1455,0.00011287,1.509e-05,0.0,0 STARLINK-4024,1 52599U 22052B   24118.93236131  .00001509  00000-0  11287-3 0  9992,2 52599  53.2163  95.2632 0001391  92.9697 267.1455 15.08844619108886,6917.866,95.437,540.694,538.769,0.0
52599.0,STARLINK-4024,PAYLOAD,2024-04-28 07:54:55,15.08835139,0.0001503,53.218,93.4777,104.8729,255.2429,-6.7176e-06,-3.95e-06,0.0,0 STARLINK-4024,1 52599U 22052B   24119.32980740 -.00000395  00000-0 -67176-5 0  9992,2 52599  53.2180  93.4777 0001503 104.8729 255.2429 15.08835139108515,6917.895,95.438,540.8,538.72,0.0
52599.0,STARLINK-4024,PAYLOAD,2024-04-28 15:51:51,15.08837327,0.0001489,53.2178,91.9936,86.7807,273.3355,1.9994e-05,3e-07,0.0,0 STARLINK-4024,1 52599U 22052B   24119.66100788  .00000030  00000-0  19994-4 0  9993,2 52599  53.2178  91.9936 0001489  86.7807 273.3355 15.08837327108992,6917.889,95.438,540.784,538.723,0.0
52599.0,STARLINK-4024,PAYLOAD,2024-04-29 07:45:42,15.08839848,0.0001544,53.2187,89.0187,94.1222,265.9947,0.00011193,1.494e-05,0.0,0 STARLINK-4024,1 52599U 22052B   24120.32340830  .00001494  00000-0  11193-3 0  9999,2 52599  53.2187  89.0187 0001544  94.1222 265.9947 15.08839848109090,6917.881,95.438,540.814,538.678,0.0
52599.0,STARLINK-4024,PAYLOAD,2024-04-30 04:25:43,15.0883061,0.0001398,53.219,85.1551,90.7292,269.386,0.00024825,3.664e-05,0.0,0 STARLINK-4024,1 52599U 22052B   24121.18453135  .00003664  00000-0  24825-3 0  9994,2 52599  53.2190  85.1551 0001398  90.7292 269.3860 15.08830610108798,6917.909,95.438,540.741,538.807,0.0
52599.0,STARLINK-4024,PAYLOAD,2024-04-30 13:58:01,15.08843635,0.0001406,53.2189,83.3709,89.1077,271.0077,0.00019003,2.738e-05,0.0,0 STARLINK-4024,1 52599U 22052B   24121.58196484  .00002738  00000-0  19003-3 0  9992,2 52599  53.2189  83.3709 0001406  89.1077 271.0077 15.08843635109280,6917.869,95.437,540.707,538.762,0.0
52599.0,STARLINK-4024,PAYLOAD,2024-05-01 04:16:30,15.0883562,0.000137,53.2184,80.6961,96.4668,263.648,4.4741e-05,4.24e-06,0.0,0 STARLINK-4024,1 52599U 22052B   24122.17813556  .00000424  00000-0  44741-4 0  9992,2 52599  53.2184  80.6961 0001370  96.4668 263.6480 15.08835620108944,6917.894,95.438,540.707,538.811,0.0
52599.0,STARLINK-4024,PAYLOAD,2024-05-01 13:48:49,15.08842457,0.0001413,53.2191,78.9123,98.0614,262.0539,9.86e-05,1.282e-05,0.0,0 STARLINK-4024,1 52599U 22052B   24122.57556993  .00001282  00000-0  98600-4 0  9991,2 52599  53.2191  78.9123 0001413  98.0614 262.0539 15.08842457109438,6917.873,95.437,540.715,538.76,0.0
52599.0,STARLINK-4024,PAYLOAD,2024-05-02 04:07:18,15.08833831,0.0001281,53.2183,76.2367,97.2288,262.885,5.4754e-06,-2.01e-06,0.0,0 STARLINK-4024,1 52599U 22052B   24123.17173868 -.00000201  00000-0  54754-5 0  9998,2 52599  53.2183  76.2367 0001281  97.2288 262.8850 15.08833831109093,6917.899,95.438,540.65,538.878,0.0
52599.0,STARLINK-4024,PAYLOAD,2024-05-02 07:18:03,15.0884795,0.0001206,53.218,75.6362,73.4328,286.6796,0.00010797,1.431e-05,0.0,0 STARLINK-4024,1 52599U 22052B   24123.30420724  .00001431  00000-0  10797-3 0  9991,2 52599  53.2180  75.6362 0001206  73.4328 286.6796 15.08847950109119,6917.856,95.437,540.555,538.887,0.0
52599.0,STARLINK-4024,PAYLOAD,2024-05-02 13:39:35,15.08852845,0.0001389,53.2188,74.45,90.4651,269.65,0.00011932,1.612e-05,0.0,0 STARLINK-4024,1 52599U 22052B   24123.56916229  .00001612  00000-0  11932-3 0  9992,2 52599  53.2188  74.4500 0001389  90.4651 269.6500 15.08852845109582,6917.841,95.437,540.667,538.745,0.0
52599.0,STARLINK-4024,PAYLOAD,2024-05-03 13:30:22,15.08856896,0.0001509,53.2186,69.9894,81.1559,278.9604,0.00017639,2.522e-05,0.0,0 STARLINK-4024,1 52599U 22052B   24124.56275626  .00002522  00000-0  17639-3 0  9993,2 52599  53.2186  69.9894 0001509  81.1559 278.9604 15.08856896109301,6917.829,95.436,540.738,538.65,0.0
52599.0,STARLINK-4024,PAYLOAD,2024-05-04 05:24:16,15.08824513,0.0001305,53.2176,67.0147,77.2887,282.8251,-8.0168e-05,-1.563e-05,0.0,0 STARLINK-4024,1 52599U 22052B   24125.22518872 -.00001563  00000-0 -80168-4 0  9994,2 52599  53.2176  67.0147 0001305  77.2887 282.8251 15.08824513109408,6917.928,95.439,540.696,538.89,0.0
52599.0,STARLINK-4024,PAYLOAD,2024-05-04 13:21:11,15.08837262,0.0001443,53.2188,65.5298,88.1925,271.9233,-8.0784e-05,-1.573e-05,0.0,0 STARLINK-4024,1 52599U 22052B   24125.55638233 -.00001573  00000-0 -80784-4 0  9999,2 52599  53.2188  65.5298 0001443  88.1925 271.9233 15.08837262109457,6917.889,95.438,540.752,538.756,0.0
52599.0,STARLINK-4024,PAYLOAD,2024-05-05 02:04:16,15.08839028,0.0001016,53.2171,63.1509,91.4954,268.6154,0.00014086,1.955e-05,0.0,0 STARLINK-4024,1 52599U 22052B   24126.08629741  .00001955  00000-0  14086-3 0  9995,2 52599  53.2171  63.1509 0001016  91.4954 268.6154 15.08839028109966,6917.883,95.438,540.451,539.046,0.0
52599.0,STARLINK-4024,PAYLOAD,2024-05-06 05:05:48,15.08863779,0.0001347,53.2172,58.0894,104.4161,255.698,0.00072542,0.00011283,0.0,0 STARLINK-4024,1 52599U 22052B   24127.21237059  .00011283  00000-0  72542-3 0  9994,2 52599  53.2172  58.0894 0001347 104.4161 255.6980 15.08863779109704,6917.808,95.436,540.605,538.741,0.0
52599.0,STARLINK-4024,PAYLOAD,2024-05-06 13:02:43,15.0888082,0.0001336,53.2172,56.6041,96.7094,263.405,0.0008806,0.0001377,0.0,0 STARLINK-4024,1 52599U 22052B   24127.54356076  .00013770  00000-0  88060-3 0  9996,2 52599  53.2172  56.6041 0001336  96.7094 263.4050 15.08880820109754,6917.756,95.435,540.545,538.696,0.0
52599.0,STARLINK-4024,PAYLOAD,2024-05-06 22:35:02,15.08853229,0.0001472,53.2177,54.8206,93.9733,266.1427,-5.1946e-05,-1.115e-05,0.0,0 STARLINK-4024,1 52599U 22052B   24127.94100333 -.00001115  00000-0 -51946-4 0  9999,2 52599  53.2177  54.8206 0001472  93.9733 266.1427 15.08853229110249,6917.84,95.437,540.723,538.687,0.0
52599.0,STARLINK-4024,PAYLOAD,2024-05-07 04:56:35,15.08855656,0.0001393,53.2186,53.6311,92.1734,267.9417,0.00027653,4.118e-05,0.0,0 STARLINK-4024,1 52599U 22052B   24128.20596108  .00004118  00000-0  27653-3 0  9999,2 52599  53.2186  53.6311 0001393  92.1734 267.9417 15.08855656109856,6917.833,95.437,540.661,538.734,0.0
52599.0,STARLINK-4024,PAYLOAD,2024-05-07 19:15:03,15.08839451,0.0001569,53.2192,50.9527,88.2038,271.9134,0.00038911,5.91e-05,0.0,0 STARLINK-4024,1 52599U 22052B   24128.80212734  .00005910  00000-0  38911-3 0  9995,2 52599  53.2192  50.9527 0001569  88.2038 271.9134 15.08839451109946,6917.882,95.438,540.832,538.662,0.0
52599.0,STARLINK-4024,PAYLOAD,2024-05-07 22:25:50,15.08826792,0.000107,53.2191,50.3588,101.2062,258.9051,5.6242e-05,6.07e-06,0.0,0 STARLINK-4024,1 52599U 22052B   24128.93460948  .00000607  00000-0  56242-4 0  9997,2 52599  53.2191  50.3588 0001070 101.2062 258.9051 15.08826792110394,6917.921,95.438,540.526,539.046,0.0
52599.0,STARLINK-4024,PAYLOAD,2024-05-08 01:36:36,15.08832495,0.0001263,53.2183,49.7658,86.7682,273.3454,-0.00023599,-4.041e-05,0.0,0 STARLINK-4024,1 52599U 22052B   24129.06709066 -.00004041  00000-0 -23599-3 0  9995,2 52599  53.2183  49.7658 0001263  86.7682 273.3454 15.08832495109982,6917.903,95.438,540.642,538.895,0.0
52599.0,STARLINK-4024,PAYLOAD,2024-05-08 11:08:55,15.08843452,0.0001117,53.2182,47.9846,92.7617,267.3503,-1.2133e-05,-4.81e-06,0.0,0 STARLINK-4024,1 52599U 22052B   24129.46452860 -.00000481  00000-0 -12133-4 0  9993,2 52599  53.2182  47.9846 0001117  92.7617 267.3503 15.08843452110045,6917.87,95.437,540.508,538.962,0.0
52599.0,STARLINK-4024,PAYLOAD,2024-05-08 22:16:38,15.08827858,0.0001327,53.2197,45.9074,86.5013,273.613,6.4057e-05,7.31e-06,0.0,0 STARLINK-4024,1 52599U 22052B   24129.92821991  .00000731  00000-0  64057-4 0  9997,2 52599  53.2197  45.9074 0001327  86.5013 273.6130 15.08827858110549,6917.918,95.438,540.701,538.864,0.0
52599.0,STARLINK-4024,PAYLOAD,2024-05-09 01:27:24,15.0882876,0.0001277,53.2187,45.3134,83.1762,276.9375,0.00011489,1.541e-05,0.0,0 STARLINK-4024,1 52599U 22052B   24130.06070055  .00001541  00000-0  11489-3 0  9991,2 52599  53.2187  45.3134 0001277  83.1762 276.9375 15.08828760110132,6917.915,95.438,540.663,538.896,0.0
